spkid,full_name,pdes,name,prefix,neo,pha,sats,H,G,M1,M2,K1,K2,PC,diameter,extent,albedo,rot_per,GM,BV,UB,IR,spec_B,spec_T,H_sigma,diameter_sigma,orbit_id,epoch,epoch_mjd,epoch_cal,equinox,e,a,q,i,om,w,ma,ad,n,tp,tp_cal,per,per_y,moid,moid_ld,moid_jup,t_jup,sigma_e,sigma_a,sigma_q,sigma_i,sigma_om,sigma_w,sigma_ma,sigma_ad,sigma_n,sigma_tp,sigma_per,class,producer,data_arc,first_obs,last_obs,n_obs_used,n_del_obs_used,n_dop_obs_used,condition_code,rms,two_body,A1,A1_sigma,A2,A2_sigma,A3,A3_sigma,DT,DT_sigma
3454735,       (2009 FY4),2009 FY4,,,Y,Y,0,21,,,,,,,0.129,,0.421,,,,,,,,,0.01,JPL 37,2460000.5,60000,2023-02-25.0,J2000,0.3274,1.013,0.681,20.98,162.62,244.65,347.77,1.34,0.9674,2460013.14,2023-03-09.6,372,1.02,0.0433,16.9,4.13,5.92,5.30E-07,1.80E-08,5.30E-07,3.50E-05,7.50E-06,3.00E-05,1.50E-04,2.40E-08,2.60E-08,1.60E-04,1.00E-05,APO,Otto Matic,1087,19/03/09,10/03/12,204,,,1,0.38571,,,,,,,,,
3455137,       (2009 FU23),2009 FU23,,,Y,Y,0,20.1,,,,,,,,,,,,,,,,,,,JPL 49,2460000.5,60000,2023-02-25.0,J2000,0.2823,0.8372,0.601,13.9,57.75,315.29,228.83,1.07,1.287,2460102.45,2023-06-06.9,280,0.766,0.0334,13,4.35,6.96,8.60E-08,2.00E-09,7.20E-08,1.50E-05,3.20E-05,3.10E-05,4.40E-05,2.60E-09,4.60E-09,3.40E-05,1.00E-06,ATE,Otto Matic,7068,30/12/02,07/05/22,184,1,0,0,0.46596,,,,,,,,,
3457438,       (2009 HV2),2009 HV2,,,Y,Y,0,21.3,,,,,,,,,,,,,,,,,,,JPL 27,2460000.5,60000,2023-02-25.0,J2000,0.4991,1.641,0.822,6.73,37.98,261.04,174.5,2.46,0.4689,2459628.33,2022-02-17.8,768,2.1,0.0335,13,2.81,4.14,8.00E-08,5.70E-08,1.00E-07,1.40E-05,3.20E-05,4.00E-05,1.00E-04,8.60E-08,2.50E-08,1.90E-04,4.00E-05,APO,Otto Matic,942,19/04/09,17/11/11,119,,,1,0.45799,,,,,,,,,
3457840,       (2009 HA21),2009 HA21,,,Y,Y,0,20.8,,,,,,,,,,,,,,,,,,,JPL 27,2460000.5,60000,2023-02-25.0,J2000,0.7291,1.461,0.396,6.41,205.41,219.89,4.72,2.53,0.5584,2459992.05,2023-02-16.5,645,1.77,0.0463,18,2.84,4.28,2.80E-07,3.20E-08,4.10E-07,3.40E-05,6.10E-05,8.50E-05,4.90E-05,5.40E-08,1.80E-08,8.80E-05,2.10E-05,APO,Otto Matic,3019,20/04/09,26/07/17,94,,,1,0.64539,,,,,,,,,
3457843,       (2009 HD21),2009 HD21,,,Y,Y,0,18.2,,,,,,,,,,,,,,,,,,,JPL 48,2460000.5,60000,2023-02-25.0,J2000,0.688,2.771,0.865,18.65,179.21,134.3,335.07,4.68,0.2137,2460117.19,2023-06-21.6,1.68E+03,4.61,0.0128,4.97,1.31,2.88,2.60E-08,1.50E-08,7.40E-08,2.10E-05,2.20E-05,2.20E-05,8.60E-06,2.50E-08,1.70E-09,4.10E-05,1.30E-05,APO,Otto Matic,5107,24/03/09,18/03/23,152,,,0,0.47517,,,,,,,,,
3458941,       (2009 HV58),2009 HV58,,,Y,Y,0,19.64,,,,,,,,,,,,,,,,,,,JPL 28,2460000.5,60000,2023-02-25.0,J2000,0.5838,1.985,0.826,46.97,69.69,50.92,17.47,3.14,0.3525,2459950.93,2023-01-06.4,1.02E+03,2.8,0.0278,10.8,2.78,3.31,1.10E-07,2.60E-08,2.30E-07,2.90E-05,2.40E-05,3.20E-05,6.90E-06,4.20E-08,7.00E-09,1.90E-05,2.00E-05,APO,Otto Matic,4962,25/04/09,25/11/22,82,,,0,0.7682,,,,,,,,,
3459429,       (2009 JR),2009 JR,,,Y,Y,0,21.4,,,,,,,,,,,,,,,,,,,JPL 25,2460000.5,60000,2023-02-25.0,J2000,0.4898,1.73,0.882,8.41,225.36,295.26,45.76,2.58,0.4333,2459894.88,2022-11-11.3,831,2.27,0.0314,12.2,2.47,4,7.70E-07,7.70E-08,1.40E-06,2.20E-05,2.10E-05,1.80E-04,1.70E-04,1.10E-07,2.90E-08,3.90E-04,5.50E-05,APO,Otto Matic,2530,03/05/09,06/04/16,107,,,1,0.43553,,,,,,,,,
3461188,       (2009 KD3),2009 KD3,,,Y,Y,0,21.4,,,,,,,,,,,,,,,,,,,JPL 10,2454977.5,54977,2009-05-26.0,J2000,0.676,2.17,0.703,7.93,39.3,116.23,17.88,3.64,0.3083,2454919.51,2009-03-29.0,1.17E+03,3.2,0.028,10.9,1.43,3.34,4.00E-03,2.40E-02,8.90E-04,3.20E-02,2.70E-02,4.70E-02,3.30E-01,4.00E-02,5.10E-03,1.10E-01,1.90E+01,APO,Otto Matic,7,23/05/09,30/05/09,24,,,9,0.45418,,,,,,,,,
3461189,       (2009 KE3),2009 KE3,,,Y,Y,0,18.31,,,,,,,,,,,,,,,,,,,JPL 39,2460000.5,60000,2023-02-25.0,J2000,0.703,2.669,0.793,5.86,13.75,319.94,45.6,4.55,0.226,2459798.7,2022-08-07.2,1.59E+03,4.36,0.033,12.8,0.884,2.96,4.30E-08,8.00E-09,1.20E-07,1.60E-05,2.20E-04,2.20E-04,3.20E-06,1.40E-08,1.00E-09,1.40E-05,7.10E-06,APO,Otto Matic,4935,23/05/09,26/11/22,120,,,0,0.47794,,,,,,,,,
3462015,       (2009 KK8),2009 KK8,,,Y,Y,0,18.82,,,,,,,,,,,,,,,,,,,JPL 59,2460000.5,60000,2023-02-25.0,J2000,0.5943,2.402,0.975,2.27,120.51,194.11,239.01,3.83,0.2647,2460457.61,2024-05-27.1,1.36E+03,3.72,0.00904,3.52,1.49,3.26,4.40E-08,9.40E-09,1.10E-07,4.40E-06,2.90E-04,2.90E-04,5.10E-06,1.50E-08,1.60E-09,2.00E-05,8.00E-06,APO,Otto Matic,4239,28/05/09,04/01/21,234,,,0,0.56259,,,,,,,,,
3463079,       (2009 LQ),2009 LQ,,,Y,Y,0,21.75,,,,,,,,,,,,,,,,,,,JPL 17,2460000.5,60000,2023-02-25.0,J2000,0.5906,1.536,0.629,5.34,114.5,244.12,38.31,2.44,0.5176,2459926.49,2022-12-12.9,695,1.9,0.0419,16.3,3.02,4.26,4.30E-04,8.80E-04,3.00E-04,2.80E-03,2.60E-03,1.20E-02,2.60E+00,1.40E-03,4.50E-04,4.90E+00,6.00E-01,APO,Otto Matic,25,26/05/09,20/06/09,63,,,7,0.52135,,,,,,,,,
3463175,       (2009 LW2),2009 LW2,,,Y,Y,0,19.7,,,,,,,,,,,,,,,,,,,JPL 26,2460000.5,60000,2023-02-25.0,J2000,0.2594,1.206,0.893,33.15,101.11,41.1,234.92,1.52,0.7445,2460168.51,2023-08-12.0,484,1.32,0.0418,16.3,3.65,5.09,2.60E-07,9.80E-09,3.10E-07,4.60E-05,1.40E-05,4.30E-05,5.60E-05,1.20E-08,9.00E-09,7.70E-05,5.90E-06,APO,Otto Matic,4184,15/06/09,28/11/20,64,,,0,0.62042,,,,,,,,,
3464007,       (2009 OF),2009 OF,,,Y,Y,0,21.5,,,,,,,,,,,,,,,,,,,JPL 25,2460000.5,60000,2023-02-25.0,J2000,0.599,2.353,0.944,9.37,126.88,218.05,263.49,3.76,0.273,2460353.98,2024-02-13.4,1.32E+03,3.61,0.00527,2.05,1.7,3.27,1.10E-05,5.50E-05,3.30E-06,1.00E-04,4.90E-05,8.40E-05,4.70E-02,8.80E-05,9.50E-06,1.80E-01,4.60E-02,APO,Otto Matic,186,17/07/09,19/01/10,175,,,4,0.38041,,,,,,,,,
3466069,       (2009 QJ9),2009 QJ9,,,Y,Y,0,19.32,,,,,,,,,,,,,,,,,,,JPL 50,2460000.5,60000,2023-02-25.0,J2000,0.621,2.717,1.03,19.28,157.78,202.22,353.62,4.4,0.22,2460029.48,2023-03-25.9,1.64E+03,4.48,0.0461,17.9,1.13,2.98,3.90E-08,2.00E-08,1.10E-07,8.90E-06,5.90E-06,1.80E-05,4.90E-06,3.30E-08,2.40E-09,2.20E-05,1.80E-05,AMO,Otto Matic,3430,21/08/09,11/01/19,397,,,0,0.3364,,,,,,,,,
3467085,       (2009 RV1),2009 RV1,,,Y,Y,0,21.9,,,,,,,,,,,,,,,,,,,JPL 25,2460000.5,60000,2023-02-25.0,J2000,0.6376,2.696,0.977,1.9,2.01,56.4,1.52,4.42,0.2226,2459993.69,2023-02-18.1,1.62E+03,4.43,0.0206,8.01,0.988,3.04,1.30E-05,8.30E-05,5.20E-06,2.80E-05,1.40E-04,1.60E-04,5.20E-02,1.40E-04,1.00E-05,2.30E-01,7.50E-02,APO,Otto Matic,118,12/09/09,08/01/10,59,,,5,0.81031,,,,,,,,,
3467148,       (2009 RZ3),2009 RZ3,,,Y,Y,0,18.82,,,,,,,,,,,,,,,,,,,JPL 25,2460000.5,60000,2023-02-25.0,J2000,0.6745,2.211,0.72,52.65,344.71,114.18,1.92,3.7,0.2998,2459994.08,2023-02-18.5,1.20E+03,3.29,0.0409,15.9,2.76,2.94,2.30E-07,1.40E-08,5.10E-07,5.80E-05,1.30E-05,3.90E-05,9.90E-06,2.40E-08,2.90E-09,3.30E-05,1.20E-05,APO,Otto Matic,4780,14/09/09,16/10/22,187,,,0,0.44607,,,,,,,,,
3467177,       (2009 SB),2009 SB,,,Y,Y,0,20.6,,,,,,,,,,,,,,,,,,,JPL 22,2460000.5,60000,2023-02-25.0,J2000,0.8004,2.214,0.442,5.45,215.08,271.81,3.33,3.99,0.2992,2459989.37,2023-02-13.8,1.20E+03,3.29,0.021,8.18,1.21,3.13,5.70E-06,5.80E-07,1.30E-05,9.50E-05,8.00E-04,1.70E-03,5.40E-04,1.00E-06,1.20E-07,1.80E-03,4.70E-04,APO,Otto Matic,4725,16/09/09,24/08/22,55,,,2,0.94314,,,,,,,,,
3467187,       (2009 SN),2009 SN,,,Y,Y,0,21.7,,,,,,,,,,,,,,,,,,,JPL 11,2455092.5,55092,2009-09-18.0,J2000,0.3219,1.428,0.968,26.47,344.66,37.75,345.72,1.89,0.5776,2455117.22,2009-10-12.7,623,1.71,0.0119,4.65,3.66,4.53,5.90E-03,1.30E-02,1.30E-04,2.60E-01,2.80E-02,2.60E-01,3.60E-01,1.70E-02,7.70E-03,3.00E-01,8.30E+00,APO,Otto Matic,4,17/09/09,21/09/09,26,,,9,0.56729,,,,,,,,,
3467355,       (2009 SW17),2009 SW17,,,Y,Y,0,19.9,,,,,,,,,,,,,,,,,,,JPL 22,2460000.5,60000,2023-02-25.0,J2000,0.5981,2.013,0.809,8.4,42.44,42.18,229.97,3.22,0.3452,2460377.16,2024-03-07.6,1.04E+03,2.86,0.0423,16.5,2.1,3.57,2.80E-07,9.70E-07,3.00E-07,3.40E-05,1.60E-04,1.70E-04,1.20E-03,1.60E-06,2.50E-07,3.80E-03,7.60E-04,APO,Otto Matic,1275,21/09/09,19/03/13,77,,,2,0.40775,,,,,,,,,
3467394,       (2009 SG18),2009 SG18,,,Y,Y,0,17.9,,,,,,,,,,,,,,,,,,,JPL 25,2460000.5,60000,2023-02-25.0,J2000,0.6737,3.041,0.992,57.86,177.42,204.58,183.24,5.09,0.1859,2460951.44,2025-10-02.9,1.94E+03,5.3,0.024,9.33,0.91,2.31,1.00E-07,4.90E-07,3.10E-07,3.10E-05,1.40E-05,1.80E-05,2.10E-04,8.10E-07,4.50E-08,1.30E-03,4.70E-04,APO,Otto Matic,1709,21/09/09,27/05/14,74,,,1,0.68825,,,,,,,,,
3471590,       (2009 TK12),2009 TK12,,,Y,Y,0,20.6,,,,,,,,,,4.167,,,,,,,,,JPL 45,2460000.5,60000,2023-02-25.0,J2000,0.5843,1.696,0.705,3.84,245.52,245.54,341.52,2.69,0.4462,2460041.93,2023-04-07.4,807,2.21,0.0134,5.2,2.4,3.99,5.20E-08,3.80E-09,8.70E-08,8.40E-06,7.60E-05,7.50E-05,9.00E-06,6.10E-09,1.50E-09,2.00E-05,2.70E-06,APO,Otto Matic,4071,14/10/09,06/12/20,244,,,0,0.4062,,,,,,,,,
3471663,       (2009 UQ),2009 UQ,,,Y,Y,0,21.7,,,,,,,,,,,,,,,,,,,JPL 14,2460000.5,60000,2023-02-25.0,J2000,0.5345,1.785,0.831,14.51,8.71,306.04,236.69,2.74,0.4131,2460298.97,2023-12-20.4,871,2.39,0.0185,7.19,2.69,3.87,2.30E-04,8.20E-04,3.60E-05,4.40E-03,1.80E-03,3.30E-03,1.50E+00,1.30E-03,2.80E-04,3.80E+00,6.00E-01,APO,Otto Matic,34,17/10/09,20/11/09,55,,,7,0.45946,,,,,,,,,
3472299,       (2009 UY17),2009 UY17,,,Y,Y,0,20.92,,,,,,,,,,,,,,,,,,,JPL 12,2460000.5,60000,2023-02-25.0,J2000,0.3163,0.8186,0.56,42.06,202.07,30.56,141.98,1.08,1.331,2459893.81,2022-11-10.3,271,0.741,0.0134,5.23,3.92,6.92,1.00E-04,3.30E-04,3.10E-04,8.00E-02,1.10E-04,8.60E-02,4.10E+00,4.40E-04,8.10E-04,3.00E+00,1.60E-01,ATE,Otto Matic,25,15/10/09,09/11/09,20,,,7,0.217,,,,,,,,,
3475236,       (2009 VW),2009 VW,,,Y,Y,0,21.6,,,,,,,,,,,,,,,,,,,JPL 27,2460000.5,60000,2023-02-25.0,J2000,0.5625,1.44,0.63,7.16,54.4,256.14,284.11,2.25,0.5702,2460133.6,2023-07-08.0,631,1.73,0.0274,10.6,3.07,4.48,1.90E-07,8.00E-09,2.80E-07,2.10E-05,3.40E-05,5.00E-05,4.50E-05,1.20E-08,4.70E-09,7.90E-05,5.20E-06,APO,Otto Matic,4885,09/11/09,26/03/23,134,,,0,0.39741,,,,,,,,,
